#aV2008 11  2  0  0   .00000000      96 DD+AD WGS84 FIT  NGA
## 1504       .00000000   900.00000000 54772  .0000000000000
+   31     2  3  4  5  6  7  8  9 10 11 12 13 14 15 16 17 18
+         19 20 21 22 23 24 25 26 27 28 29 30 31 32  0  0  0
+          0  0  0  0  0  0  0  0  0  0  0  0  0  0  0  0  0
+          0  0  0  0  0  0  0  0  0  0  0  0  0  0  0  0  0
+          0  0  0  0  0  0  0  0  0  0  0  0  0  0  0  0  0
++         0  0  0  0  0  0  0  0  0  0  0  0  0  0  0  0  0
++         0  0  0  0  0  0  0  0  0  0  0  0  0  0  0  0  0
++         0  0  0  0  0  0  0  0  0  0  0  0  0  0  0  0  0
++         0  0  0  0  0  0  0  0  0  0  0  0  0  0  0  0  0
++         0  0  0  0  0  0  0  0  0  0  0  0  0  0  0  0  0
%c cc cc ccc ccc cccc cccc cccc cccc ccccc ccccc ccccc ccccc
%c cc cc ccc ccc cccc cccc cccc cccc ccccc ccccc ccccc ccccc
%f  0.0000000  0.000000000  0.00000000000  0.000000000000000
%f  0.0000000  0.000000000  0.00000000000  0.000000000000000
%i    0    0    0    0      0      0      0      0         0
%i    0    0    0    0      0      0      0      0         0
/*      NGA, ST. LOUIS,MO.                                  
/*   EPHEMERIS COMPUTED FROM  3 DAYS OF DATA                
/* CCCCCCCCCCCCCCCCCCCCCCCCCCCCCCCCCCCCCCCCCCCCCCCCCCCCCCCCC
/* CCCCCCCCCCCCCCCCCCCCCCCCCCCCCCCCCCCCCCCCCCCCCCCCCCCCCCCCC
*  2008 11  2 11  0   .00000000                                                 
P  2    643.102703  16311.632499  20876.863280    175.928558                    
V  2 -25471.722346  -8404.323338   6931.457579      -.026063                    
P  3   5386.384433 -21494.771000 -14671.681075    305.496359                    
V  3  14912.579212 -11151.560492  22610.523695       .052423                    
P  4 -15436.224464   9334.311832  19494.527196   -219.513734                    
V  4 -22912.280624  -9967.371919 -12922.844873      -.119641                    
P  5  14960.165068  16889.174291  13817.408757   -357.684085                    
V  5   2249.762199  18076.060596 -23895.892650      -.363487                    
P  6  10901.109581 -21285.203785 -11363.260247    150.373624                    
V  6  13062.397066  -7590.010459  26327.134205      -.059745                    
P  7 -25520.186032  -6459.322402  -3963.392873     22.859538                    
V  7  -3797.032132  -4119.682090  31248.495793       .003714                    
P  8 -21701.629096   1867.324498 -15610.938943   -176.452769                    
V  8 -17410.486356  -8727.608222  22778.648745      -.014991                    
P  9  18742.854956  14907.816903 -12249.587066     22.867216                    
V  9 -14315.761690  -2851.536168 -26675.023417       .019319                    
P 10    656.822327  25963.135015   4496.605565     -6.775451                    
V 10  -3880.404341  -5429.962640  31288.399973      -.004612                    
P 11 -21235.991154 -12167.261783 -10902.404934     16.528312                    
V 11  14080.683589  -1829.021896 -25456.958369      -.008158                    
P 12  11476.790762  21273.297618  11191.882239   -343.058977                    
V 12    160.114275  14235.191975 -27305.003491       .022046                    
P 13 -19967.106952    875.606773  17374.674577    275.809816                    
V 13  17119.227126 -14205.100933  20257.961430       .010059                    
P 14  21062.450761 -16070.401742   -380.267238   -199.680193                    
V 14    746.331953   1975.865170 -32439.162974       .047235                    
P 15   2811.407959  16597.613577 -20507.411289   -204.214019                    
V 15 -20495.828172  16234.569262  10338.836932      -.063031                    
P 16   3651.512109 -24042.734059  10481.149520     97.813165                    
V 16   4443.027773  12762.953046  28088.068287      -.023189                    
P 17 -21457.058841  15313.406052  -2273.433536     40.022358                    
V 17    405.216501  -4195.015529 -31666.928274       .004000                    
P 18  15715.404668   2231.953950 -21127.401104   -117.129666                    
V 18   3368.947689  27119.418066   4957.112946       .039003                    
P 19  -3431.065621 -15752.980920 -21004.126144     35.634599                    
V 19  22300.254967 -15028.618577   7814.907108      -.000700                    
P 20 -13489.813735 -18444.572958  13459.166000    100.202641                    
V 20   -746.861548 -17477.512277 -24451.781239      -.010658                    
P 21  25250.395195   3303.389496  -8360.628893     44.226574                    
V 21   8974.704810   6618.678894  28354.155837      -.015620                    
P 22  12673.848810 -12448.123411 -19563.491033    209.784091                    
V 22   4744.592660  24868.974898 -12703.137440      -.002588                    
P 23 -13959.780322  -7398.297033  21340.503946    378.738998                    
V 23  20643.577854 -17622.521171   7112.941745       .011969                    
P 24  22314.511886  13307.377426   4900.625413    137.898520                    
V 24  -6868.388891    578.019422  30919.050726       .029070                    
P 25 -24444.263209  -9401.934280   4157.142298     -9.531877                    
V 25   5382.549372  -1353.701323  31433.020042       .321033                    
P 26  -3030.070710  18138.851826 -19451.227763     10.408825                    
V 26 -19612.648471  13439.141285  16515.841993       .046489                    
P 27 -25562.346388  -3556.708476  -5825.758869    229.732788                    
V 27  -7205.758908  -4685.583210  30774.697299       .029013                    
P 28 -12795.160185  10321.580129 -20389.035425    -23.383332                    
V 28  -4925.516876 -26436.080448 -10424.710831      -.000708                    
P 29  18934.940675   1628.050399  18645.485857    -31.916188                    
V 29 -17450.507020  15771.712742  16471.077237       .016051                    
P 30  15883.981653   8420.989893  19218.866868    105.503104                    
V 30   3911.136046  24923.673667 -13811.261224       .020729                    
P 31  12031.809794 -11047.346372  21171.370008    -36.096475                    
V 31  24548.336748   9604.412696  -8922.788799      -.022121                    
P 32  -8115.024139 -24011.470316   8713.227923    315.156876                    
V 32   1258.889322 -10553.073971 -29159.591219      -.009451                    
EOF
